CCSDS_OMM_VERS = 2.0
CREATION_DATE  = 
ORIGINATOR     = 

OBJECT_NAME    = RSP-03
OBJECT_ID      = 1998-067XL
CENTER_NAME    = EARTH
REF_FRAME      = TEME
TIME_SYSTEM    = UTC
MEAN_ELEMENT_THEORY = SGP/SGP4

EPOCH          = 2026-02-15T17:29:49.873344
MEAN_MOTION    = 16.29510775
ECCENTRICITY   = .00079595
INCLINATION    = 51.6084
RA_OF_ASC_NODE = 157.7974
ARG_OF_PERICENTER = 327.1992
MEAN_ANOMALY   = 32.8535

EPHEMERIS_TYPE = 0
CLASSIFICATION_TYPE = U
NORAD_CAT_ID   = 65732
ELEMENT_SET_NO = 999
REV_AT_EPOCH   = 2346
BSTAR          = .11944644E-2
MEAN_MOTION_DOT = .5404537E-1
MEAN_MOTION_DDOT = .12173661E-4

CCSDS_OMM_VERS = 2.0
CREATION_DATE  = 
ORIGINATOR     = 

OBJECT_NAME    = YOTSUBA-KULOVER
OBJECT_ID      = 1998-067XN
CENTER_NAME    = EARTH
REF_FRAME      = TEME
TIME_SYSTEM    = UTC
MEAN_ELEMENT_THEORY = SGP/SGP4

EPOCH          = 2026-02-15T12:22:39.972288
MEAN_MOTION    = 15.72770620
ECCENTRICITY   = .00046232
INCLINATION    = 51.6246
RA_OF_ASC_NODE = 171.5729
ARG_OF_PERICENTER = 308.2931
MEAN_ANOMALY   = 51.7651

EPHEMERIS_TYPE = 0
CLASSIFICATION_TYPE = U
NORAD_CAT_ID   = 65941
ELEMENT_SET_NO = 999
REV_AT_EPOCH   = 2000
BSTAR          = .11759301E-2
MEAN_MOTION_DOT = .164991E-2
MEAN_MOTION_DDOT = 0

CCSDS_OMM_VERS = 2.0
CREATION_DATE  = 
ORIGINATOR     = 

OBJECT_NAME    = BOTAN
OBJECT_ID      = 1998-067XP
CENTER_NAME    = EARTH
REF_FRAME      = TEME
TIME_SYSTEM    = UTC
MEAN_ELEMENT_THEORY = SGP/SGP4

EPOCH          = 2026-02-15T16:52:16.746240
MEAN_MOTION    = 15.90062196
ECCENTRICITY   = .00087977
INCLINATION    = 51.6165
RA_OF_ASC_NODE = 166.0065
ARG_OF_PERICENTER = 331.2501
MEAN_ANOMALY   = 28.8019

EPHEMERIS_TYPE = 0
CLASSIFICATION_TYPE = U
NORAD_CAT_ID   = 65942
ELEMENT_SET_NO = 999
REV_AT_EPOCH   = 2009
BSTAR          = .15823666E-2
MEAN_MOTION_DOT = .485817E-2
MEAN_MOTION_DDOT = .10037908E-3

CCSDS_OMM_VERS = 2.0
CREATION_DATE  = 
ORIGINATOR     = 

OBJECT_NAME    = E-KAGAKU-1
OBJECT_ID      = 1998-067XQ
CENTER_NAME    = EARTH
REF_FRAME      = TEME
TIME_SYSTEM    = UTC
MEAN_ELEMENT_THEORY = SGP/SGP4

EPOCH          = 2026-02-15T12:24:34.007328
MEAN_MOTION    = 15.72633938
ECCENTRICITY   = .00046419
INCLINATION    = 51.6274
RA_OF_ASC_NODE = 171.5949
ARG_OF_PERICENTER = 322.6384
MEAN_ANOMALY   = 37.4291

EPHEMERIS_TYPE = 0
CLASSIFICATION_TYPE = U
NORAD_CAT_ID   = 65943
ELEMENT_SET_NO = 999
REV_AT_EPOCH   = 2000
BSTAR          = .11758444E-2
MEAN_MOTION_DOT = .163999E-2
MEAN_MOTION_DDOT = 0

CCSDS_OMM_VERS = 2.0
CREATION_DATE  = 
ORIGINATOR     = 

OBJECT_NAME    = HRC MONOBLOCK CAMERA
OBJECT_ID      = 1998-067XR
CENTER_NAME    = EARTH
REF_FRAME      = TEME
TIME_SYSTEM    = UTC
MEAN_ELEMENT_THEORY = SGP/SGP4

EPOCH          = 2026-02-15T13:10:56.393184
MEAN_MOTION    = 15.59873379
ECCENTRICITY   = .0001906
INCLINATION    = 51.6277
RA_OF_ASC_NODE = 177.0654
ARG_OF_PERICENTER = 11.5180
MEAN_ANOMALY   = 348.5856

EPHEMERIS_TYPE = 0
CLASSIFICATION_TYPE = U
NORAD_CAT_ID   = 66052
ELEMENT_SET_NO = 999
REV_AT_EPOCH   = 1893
BSTAR          = .63608E-3
MEAN_MOTION_DOT = .52002E-3
MEAN_MOTION_DDOT = 0

CCSDS_OMM_VERS = 2.0
CREATION_DATE  = 
ORIGINATOR     = 

OBJECT_NAME    = HTV-X1
OBJECT_ID      = 2025-241A
CENTER_NAME    = EARTH
REF_FRAME      = TEME
TIME_SYSTEM    = UTC
MEAN_ELEMENT_THEORY = SGP/SGP4

EPOCH          = 2026-02-15T19:51:56.197728
MEAN_MOTION    = 15.48632469
ECCENTRICITY   = .0010986
INCLINATION    = 51.6318
RA_OF_ASC_NODE = 180.4216
ARG_OF_PERICENTER = 102.2508
MEAN_ANOMALY   = 257.9711

EPHEMERIS_TYPE = 0
CLASSIFICATION_TYPE = U
NORAD_CAT_ID   = 66174
ELEMENT_SET_NO = 999
REV_AT_EPOCH   = 51
BSTAR          = .23474601E-3
MEAN_MOTION_DOT = .1236E-3
MEAN_MOTION_DDOT = 0

CCSDS_OMM_VERS = 2.0
CREATION_DATE  = 
ORIGINATOR     = 

OBJECT_NAME    = SZ-21 MODULE
OBJECT_ID      = 2025-246C
CENTER_NAME    = EARTH
REF_FRAME      = TEME
TIME_SYSTEM    = UTC
MEAN_ELEMENT_THEORY = SGP/SGP4

EPOCH          = 2026-02-15T04:52:02.803872
MEAN_MOTION    = 15.66814588
ECCENTRICITY   = .0002175
INCLINATION    = 41.4768
RA_OF_ASC_NODE = 341.5977
ARG_OF_PERICENTER = 296.5638
MEAN_ANOMALY   = 63.4980

EPHEMERIS_TYPE = 0
CLASSIFICATION_TYPE = U
NORAD_CAT_ID   = 66515
ELEMENT_SET_NO = 999
REV_AT_EPOCH   = 1454
BSTAR          = .37236E-3
MEAN_MOTION_DOT = .4035E-3
MEAN_MOTION_DDOT = 0

CCSDS_OMM_VERS = 2.0
CREATION_DATE  = 
ORIGINATOR     = 

OBJECT_NAME    = SHENZHOU-22
OBJECT_ID      = 2025-272A
CENTER_NAME    = EARTH
REF_FRAME      = TEME
TIME_SYSTEM    = UTC
MEAN_ELEMENT_THEORY = SGP/SGP4

EPOCH          = 2026-02-15T22:50:06.446400
MEAN_MOTION    = 15.59696868
ECCENTRICITY   = .00041233
INCLINATION    = 41.4685
RA_OF_ASC_NODE = 340.3350
ARG_OF_PERICENTER = 109.3123
MEAN_ANOMALY   = 250.8161

EPHEMERIS_TYPE = 0
CLASSIFICATION_TYPE = U
NORAD_CAT_ID   = 66645
ELEMENT_SET_NO = 999
REV_AT_EPOCH   = 26764
BSTAR          = .35720609E-3
MEAN_MOTION_DOT = .29148E-3
MEAN_MOTION_DDOT = 0

CCSDS_OMM_VERS = 2.0
CREATION_DATE  = 
ORIGINATOR     = 

OBJECT_NAME    = SOYUZ-MS 28
OBJECT_ID      = 2025-275A
CENTER_NAME    = EARTH
REF_FRAME      = TEME
TIME_SYSTEM    = UTC
MEAN_ELEMENT_THEORY = SGP/SGP4

EPOCH          = 2026-02-15T19:51:56.197728
MEAN_MOTION    = 15.48632469
ECCENTRICITY   = .0010986
INCLINATION    = 51.6318
RA_OF_ASC_NODE = 180.4216
ARG_OF_PERICENTER = 102.2508
MEAN_ANOMALY   = 257.9711

EPHEMERIS_TYPE = 0
CLASSIFICATION_TYPE = U
NORAD_CAT_ID   = 66664
ELEMENT_SET_NO = 999
REV_AT_EPOCH   = 128
BSTAR          = .23474601E-3
MEAN_MOTION_DOT = .1236E-3
MEAN_MOTION_DDOT = 0

CCSDS_OMM_VERS = 2.0
CREATION_DATE  = 
ORIGINATOR     = 

OBJECT_NAME    = DUPLEX
OBJECT_ID      = 1998-067XS
CENTER_NAME    = EARTH
REF_FRAME      = TEME
TIME_SYSTEM    = UTC
MEAN_ELEMENT_THEORY = SGP/SGP4

EPOCH          = 2026-02-15T13:10:26.316480
MEAN_MOTION    = 15.54659090
ECCENTRICITY   = .0001408
INCLINATION    = 51.6292
RA_OF_ASC_NODE = 180.0635
ARG_OF_PERICENTER = 71.9206
MEAN_ANOMALY   = 288.1938

EPHEMERIS_TYPE = 0
CLASSIFICATION_TYPE = U
NORAD_CAT_ID   = 66906
ELEMENT_SET_NO = 999
REV_AT_EPOCH   = 1168
BSTAR          = .52648E-3
MEAN_MOTION_DOT = .35209E-3
MEAN_MOTION_DDOT = 0

CCSDS_OMM_VERS = 2.0
CREATION_DATE  = 
ORIGINATOR     = 

OBJECT_NAME    = ISS OBJECT XT
OBJECT_ID      = 1998-067XT
CENTER_NAME    = EARTH
REF_FRAME      = TEME
TIME_SYSTEM    = UTC
MEAN_ELEMENT_THEORY = SGP/SGP4

EPOCH          = 2026-02-15T18:11:04.359840
MEAN_MOTION    = 15.63239154
ECCENTRICITY   = .00022893
INCLINATION    = 51.6272
RA_OF_ASC_NODE = 176.9534
ARG_OF_PERICENTER = 311.2499
MEAN_ANOMALY   = 48.8298

EPHEMERIS_TYPE = 0
CLASSIFICATION_TYPE = U
NORAD_CAT_ID   = 66907
ELEMENT_SET_NO = 999
REV_AT_EPOCH   = 1174
BSTAR          = .13778209E-2
MEAN_MOTION_DOT = .130306E-2
MEAN_MOTION_DDOT = 0

CCSDS_OMM_VERS = 2.0
CREATION_DATE  = 
ORIGINATOR     = 

OBJECT_NAME    = ISS OBJECT XU
OBJECT_ID      = 1998-067XU
CENTER_NAME    = EARTH
REF_FRAME      = TEME
TIME_SYSTEM    = UTC
MEAN_ELEMENT_THEORY = SGP/SGP4

EPOCH          = 2026-02-15T21:14:07.980576
MEAN_MOTION    = 15.63307535
ECCENTRICITY   = .00022877
INCLINATION    = 51.6262
RA_OF_ASC_NODE = 176.2997
ARG_OF_PERICENTER = 320.0129
MEAN_ANOMALY   = 40.0697

EPHEMERIS_TYPE = 0
CLASSIFICATION_TYPE = U
NORAD_CAT_ID   = 66908
ELEMENT_SET_NO = 999
REV_AT_EPOCH   = 1176
BSTAR          = .1280929E-2
MEAN_MOTION_DOT = .121295E-2
MEAN_MOTION_DDOT = 0

