RSP-03                  
1 65732U 98067XL  26046.72904946  .05404537  12174-4  11945-2 0  9991
2 65732  51.6084 157.7974 0007959 327.1992  32.8535 16.29510775 23466
YOTSUBA-KULOVER         
1 65941U 98067XN  26046.51574042  .00164991  00000+0  11759-2 0  9995
2 65941  51.6246 171.5729 0004623 308.2931  51.7651 15.72770620 20008
BOTAN                   
1 65942U 98067XP  26046.70297160  .00485817  10038-3  15824-2 0  9996
2 65942  51.6165 166.0065 0008797 331.2501  28.8019 15.90062196 20090
E-KAGAKU-1              
1 65943U 98067XQ  26046.51706027  .00163999  00000+0  11758-2 0  9993
2 65943  51.6274 171.5949 0004641 322.6384  37.4291 15.72633938 20008
HRC MONOBLOCK CAMERA    
1 66052U 98067XR  26046.54926381  .00052002  00000+0  63608-3 0  9999
2 66052  51.6277 177.0654 0001906  11.5180 348.5856 15.59873379 18938
HTV-X1                  
1 66174U 25241A   26046.82773377  .00012360  00000+0  23475-3 0  9995
2 66174  51.6318 180.4216 0010986 102.2508 257.9711 15.48632469   510
SZ-21 MODULE            
1 66515U 25246C   26046.20281023  .00040350  00000+0  37236-3 0  9993
2 66515  41.4768 341.5977 0002175 296.5638  63.4980 15.66814588 14541
SHENZHOU-22             
1 66645U 25272A   26046.95146350  .00029148  00000+0  35721-3 0  9990
2 66645  41.4685 340.3350 0004123 109.3123 250.8161 15.59696868267645
SOYUZ-MS 28             
1 66664U 25275A   26046.82773377  .00012360  00000+0  23475-3 0  9996
2 66664  51.6318 180.4216 0010986 102.2508 257.9711 15.48632469  1289
DUPLEX                  
1 66906U 98067XS  26046.54891570  .00035209  00000+0  52648-3 0  9990
2 66906  51.6292 180.0635 0001408  71.9206 288.1938 15.54659090 11684
ISS OBJECT XT           
1 66907U 98067XT  26046.75768935  .00130306  00000+0  13778-2 0  9996
2 66907  51.6272 176.9534 0002289 311.2499  48.8298 15.63239154 11749
ISS OBJECT XU           
1 66908U 98067XU  26046.88481459  .00121295  00000+0  12809-2 0  9995
2 66908  51.6262 176.2997 0002287 320.0129  40.0697 15.63307535 11769
